NORAD_CAT_ID,OBJECT_NAME,OBJECT_TYPE,EPOCH,MEAN_MOTION,ECCENTRICITY,INCLINATION,RA_OF_ASC_NODE,ARG_OF_PERICENTER,MEAN_ANOMALY,BSTAR,MEAN_MOTION_DOT,MEAN_MOTION_DDOT,TLE_LINE0,TLE_LINE1,TLE_LINE2,SEMIMAJOR_AXIS,PERIOD,APOGEE,PERIGEE,DECAYED
52658.0,STARLINK-4082,PAYLOAD,2023-05-24 01:37:45,15.0884356,0.0001171,53.2176,55.8711,102.1043,258.008,0.00033924,5.116e-05,0.0,0 STARLINK-4082,1 52658U 22053C   23144.06788757  .00005116  00000-0  33924-3 0  9997,2 52658  53.2176  55.8711 0001171 102.1043 258.0080 15.08843560 57151,6917.87,95.437,540.545,538.924,0.0
52658.0,STARLINK-4082,PAYLOAD,2023-05-25 17:22:23,15.08842818,0.0001259,53.2174,48.4371,91.9203,268.1933,5.05e-05,5.16e-06,0.0,0 STARLINK-4082,1 52658U 22053C   23145.72388599  .00000516  00000-0  50500-4 0  9990,2 52658  53.2174  48.4371 0001259  91.9203 268.1933 15.08842818 57401,6917.872,95.437,540.608,538.866,0.0
52658.0,STARLINK-4082,PAYLOAD,2023-05-25 22:08:33,15.08843304,0.0001272,53.2175,47.5457,90.4234,269.6904,5.4258e-05,5.76e-06,0.0,0 STARLINK-4082,1 52658U 22053C   23145.92260538  .00000576  00000-0  54258-4 0  9994,2 52658  53.2175  47.5457 0001272  90.4234 269.6904 15.08843304 57438,6917.87,95.437,540.615,538.855,0.0
52658.0,STARLINK-4082,PAYLOAD,2023-05-26 02:54:42,15.08824028,0.0001376,53.2182,46.6522,103.6593,256.4553,0.00049697,7.627e-05,0.0,0 STARLINK-4082,1 52658U 22053C   23146.12132876  .00007627  00000-0  49697-3 0  9994,2 52658  53.2182  46.6522 0001376 103.6593 256.4553 15.08824028 57468,6917.929,95.439,540.746,538.842,0.0
52658.0,STARLINK-4082,PAYLOAD,2023-05-26 21:59:20,15.0884015,0.0001301,53.2169,43.0838,87.3726,272.7415,3.9236e-05,3.37e-06,0.0,0 STARLINK-4082,1 52658U 22053C   23146.91620701  .00000337  00000-0  39236-4 0  9990,2 52658  53.2169  43.0838 0001301  87.3726 272.7415 15.08840150 57583,6917.88,95.438,540.645,538.845,0.0
52658.0,STARLINK-4082,PAYLOAD,2023-05-26 23:34:43,15.08843433,0.0001339,53.2174,42.7857,91.5186,268.596,2.2123e-05,6.4e-07,0.0,0 STARLINK-4082,1 52658U 22053C   23146.98244495  .00000064  00000-0  22123-4 0  9993,2 52658  53.2174  42.7857 0001339  91.5186 268.5960 15.08843433 57590,6917.87,95.437,540.661,538.809,0.0
52658.0,STARLINK-4082,PAYLOAD,2023-05-27 20:14:44,15.0883782,0.0001489,53.2183,38.9198,107.8367,252.2788,-1.8096e-06,-3.17e-06,0.0,0 STARLINK-4082,1 52658U 22053C   23147.84356956 -.00000317  00000-0 -18096-5 0  9993,2 52658  53.2183  38.9198 0001489 107.8367 252.2788 15.08837820 57729,6917.887,95.438,540.782,538.722,0.0
52658.0,STARLINK-4082,PAYLOAD,2023-05-27 21:50:07,15.08838762,0.0001395,53.2182,38.6224,106.9629,253.1516,-1.0361e-06,-3.04e-06,0.0,0 STARLINK-4082,1 52658U 22053C   23147.90980879 -.00000304  00000-0 -10361-5 0  9990,2 52658  53.2182  38.6224 0001395 106.9629 253.1516 15.08838762 57738,6917.884,95.438,540.714,538.784,0.0
52658.0,STARLINK-4082,PAYLOAD,2023-05-28 02:36:16,15.08849084,0.000161,53.2173,37.7338,95.2443,264.8732,-8.7346e-05,-1.678e-05,0.0,0 STARLINK-4082,1 52658U 22053C   23148.10852464 -.00001678  00000-0 -87346-4 0  9992,2 52658  53.2173  37.7338 0001610  95.2443 264.8732 15.08849084 57769,6917.853,95.437,540.831,538.604,0.0
52658.0,STARLINK-4082,PAYLOAD,2023-05-28 16:54:44,15.08840673,0.0001192,53.2174,35.0573,92.521,267.5919,7.1186e-05,8.45e-06,0.0,0 STARLINK-4082,1 52658U 22053C   23148.70468706  .00000845  00000-0  71186-4 0  9998,2 52658  53.2174  35.0573 0001192  92.5210 267.5919 15.08840673 57851,6917.878,95.438,540.568,538.919,0.0
52658.0,STARLINK-4082,PAYLOAD,2023-05-28 21:40:54,15.08846597,0.0001157,53.2176,34.165,90.3285,269.784,7.9057e-05,9.71e-06,0.0,0 STARLINK-4082,1 52658U 22053C   23148.90340358  .00000971  00000-0  79057-4 0  9997,2 52658  53.2176  34.1650 0001157  90.3285 269.7840 15.08846597 57889,6917.86,95.437,540.526,538.925,0.0
52658.0,STARLINK-4082,PAYLOAD,2023-05-28 23:16:16,15.08849665,0.0001189,53.2178,33.867,92.0483,268.0646,0.00011552,1.552e-05,0.0,0 STARLINK-4082,1 52658U 22053C   23148.96964059  .00001552  00000-0  11552-3 0  9994,2 52658  53.2178  33.8670 0001189  92.0483 268.0646 15.08849665 57899,6917.851,95.437,540.538,538.893,0.0
52658.0,STARLINK-4082,PAYLOAD,2023-05-29 16:45:32,15.08835474,0.0001171,53.218,30.5962,89.6448,270.4678,3.5602e-05,2.79e-06,0.0,0 STARLINK-4082,1 52658U 22053C   23149.69829365  .00000279  00000-0  35602-4 0  9993,2 52658  53.2180  30.5962 0001171  89.6448 270.4678 15.08835474 58003,6917.894,95.438,540.569,538.949,0.0
52658.0,STARLINK-4082,PAYLOAD,2023-05-29 19:56:19,15.08833053,0.0001118,53.2177,30.0024,93.3634,266.7486,6.0531e-06,-1.91e-06,0.0,0 STARLINK-4082,1 52658U 22053C   23149.83077609 -.00000191  00000-0  60531-5 0  9999,2 52658  53.2177  30.0024 0001118  93.3634 266.7486 15.08833053 58021,6917.902,95.438,540.54,538.993,0.0
52658.0,STARLINK-4082,PAYLOAD,2023-05-30 02:17:51,15.08836937,0.000112,53.2179,28.8117,100.8652,259.2466,4.9446e-05,4.99e-06,0.0,0 STARLINK-4082,1 52658U 22053C   23150.09573312  .00000499  00000-0  49446-4 0  9992,2 52658  53.2179  28.8117 0001120 100.8652 259.2466 15.08836937 58061,6917.89,95.438,540.53,538.98,0.0
52658.0,STARLINK-4082,PAYLOAD,2023-05-30 21:22:28,15.08843527,0.0001098,53.2176,25.2431,104.233,255.8784,3.0911e-05,2.04e-06,0.0,0 STARLINK-4082,1 52658U 22053C   23150.89061096  .00000204  00000-0  30911-4 0  9992,2 52658  53.2176  25.2431 0001098 104.2330 255.8784 15.08843527 58184,6917.87,95.437,540.494,538.975,0.0
52658.0,STARLINK-4082,PAYLOAD,2023-05-30 22:57:51,15.08845842,0.0001041,53.2177,24.9457,101.8461,258.2647,3.6884e-05,2.99e-06,0.0,0 STARLINK-4082,1 52658U 22053C   23150.95684935  .00000299  00000-0  36884-4 0  9991,2 52658  53.2177  24.9457 0001041 101.8461 258.2647 15.08845842 58193,6917.863,95.437,540.448,539.007,0.0
52658.0,STARLINK-4082,PAYLOAD,2023-05-31 14:51:43,15.08836285,0.0001064,53.2175,21.9722,109.3229,250.7878,0.00010379,1.364e-05,0.0,0 STARLINK-4082,1 52658U 22053C   23151.61925514  .00001364  00000-0  10379-3 0  9990,2 52658  53.2175  21.9722 0001064 109.3229 250.7878 15.08836285 58298,6917.892,95.438,540.493,539.021,0.0
52658.0,STARLINK-4082,PAYLOAD,2023-05-31 21:13:15,15.08840448,0.0001081,53.2174,20.7828,110.3172,249.7937,0.00013245,1.821e-05,0.0,0 STARLINK-4082,1 52658U 22053C   23151.88421236  .00001821  00000-0  13245-3 0  9994,2 52658  53.2174  20.7828 0001081 110.3172 249.7937 15.08840448 58334,6917.879,95.438,540.492,538.996,0.0
52658.0,STARLINK-4082,PAYLOAD,2023-06-01 00:24:02,15.08843693,0.0001063,53.2174,20.1879,107.2984,252.8124,0.00016,2.26e-05,0.0,0 STARLINK-4082,1 52658U 22053C   23152.01669013  .00002260  00000-0  16000-3 0  9997,2 52658  53.2174  20.1879 0001063 107.2984 252.8124 15.08843693 58350,6917.869,95.437,540.469,538.999,0.0
52658.0,STARLINK-4082,PAYLOAD,2023-06-01 21:04:03,15.08837881,0.0001098,53.2168,16.3228,90.7929,269.3189,9.8981e-06,-1.3e-06,0.0,0 STARLINK-4082,1 52658U 22053C   23152.87781620 -.00000130  00000-0  98981-5 0  9995,2 52658  53.2168  16.3228 0001098  90.7929 269.3189 15.08837881 58481,6917.887,95.438,540.511,538.992,0.0
52658.0,STARLINK-4082,PAYLOAD,2023-06-02 14:33:18,15.08840098,0.0001162,53.2178,13.0504,92.3351,267.7774,2.4669e-05,1.05e-06,0.0,0 STARLINK-4082,1 52658U 22053C   23153.60645925  .00000105  00000-0  24669-4 0  9996,2 52658  53.2178  13.0504 0001162  92.3351 267.7774 15.08840098 58590,6917.88,95.438,540.549,538.941,0.0
52658.0,STARLINK-4082,PAYLOAD,2023-06-02 20:54:50,15.08840872,0.0001183,53.2178,11.8614,87.6076,272.5052,3.0869e-05,2.03e-06,0.0,0 STARLINK-4082,1 52658U 22053C   23153.87141859  .00000203  00000-0  30869-4 0  9990,2 52658  53.2178  11.8614 0001183  87.6076 272.5052 15.08840872 58630,6917.878,95.437,540.561,538.924,0.0
52658.0,STARLINK-4082,PAYLOAD,2023-06-03 14:24:04,15.08840805,9.7e-05,53.2182,8.5911,73.2078,286.9021,0.00013431,1.85e-05,0.0,0 STARLINK-4082,1 52658U 22053C   23154.60005546  .00001850  00000-0  13431-3 0  9998,2 52658  53.2182   8.5911 0000970  73.2078 286.9021 15.08840805 58747,6917.878,95.438,540.414,539.072,0.0
52658.0,STARLINK-4082,PAYLOAD,2023-06-03 19:10:13,15.08844345,0.0001067,53.2177,7.6991,77.4788,282.6324,0.00015777,2.224e-05,0.0,0 STARLINK-4082,1 52658U 22053C   23154.79877296  .00002224  00000-0  15777-3 0  9998,2 52658  53.2177   7.6991 0001067  77.4788 282.6324 15.08844345 58776,6917.867,95.437,540.47,538.994,0.0
52658.0,STARLINK-4082,PAYLOAD,2023-06-03 20:45:36,15.08846812,0.0001118,53.2182,7.4014,84.0771,276.0349,0.00018209,2.612e-05,0.0,0 STARLINK-4082,1 52658U 22053C   23154.86501097  .00002612  00000-0  18209-3 0  9993,2 52658  53.2182   7.4014 0001118  84.0771 276.0349 15.08846812 58785,6917.86,95.437,540.498,538.951,0.0
52658.0,STARLINK-4082,PAYLOAD,2023-06-03 23:56:23,15.0884847,0.0001118,53.2179,6.8062,84.2549,275.857,0.00019792,2.864e-05,0.0,0 STARLINK-4082,1 52658U 22053C   23154.99748953  .00002864  00000-0  19792-3 0  9998,2 52658  53.2179   6.8062 0001118  84.2549 275.8570 15.08848470 58800,6917.854,95.437,540.493,538.946,0.0
52658.0,STARLINK-4082,PAYLOAD,2023-06-04 19:01:01,15.08837478,0.0001144,53.218,3.2382,83.0825,277.0297,5.3811e-05,5.69e-06,0.0,0 STARLINK-4082,1 52658U 22053C   23155.79237924  .00000569  00000-0  53811-4 0  9999,2 52658  53.2180   3.2382 0001144  83.0825 277.0297 15.08837478 58920,6917.888,95.438,540.545,538.962,0.0
52658.0,STARLINK-4082,PAYLOAD,2023-06-04 20:36:24,15.08843172,0.0001063,53.2171,2.9392,85.3471,274.7643,9.4469e-05,1.216e-05,0.0,0 STARLINK-4082,1 52658U 22053C   23155.85861466  .00001216  00000-0  94469-4 0  9994,2 52658  53.2171   2.9392 0001063  85.3471 274.7643 15.08843172 58937,6917.871,95.437,540.471,539.0,0.0
52658.0,STARLINK-4082,PAYLOAD,2023-06-05 01:22:33,15.08847422,0.0001042,53.2178,2.0492,84.2367,275.8744,0.00015176,2.129e-05,0.0,0 STARLINK-4082,1 52658U 22053C   23156.05733142  .00002129  00000-0  15176-3 0  9997,2 52658  53.2178   2.0492 0001042  84.2367 275.8744 15.08847422 58964,6917.858,95.437,540.444,539.002,0.0
